H1 CPF 01  gfz 2021 01 01 13  5012 tandemx   
H2 1003001  6202 36605    2021 01 01 12 59 42 2021 01 06 00 00 42   120 1 1  0 0 0
H9
10 0 59219  15822.000000  0    -824537.319    602678.298   6801355.136
10 0 59219  15942.000000  0      14764.405    980462.129   6807374.566
10 0 59219  16062.000000  0     860142.312   1326396.786   6693780.398
10 0 59219  16182.000000  0    1696236.026   1634472.275   6462557.367
10 0 59219  16302.000000  0    2507743.844   1899603.693   6117744.883
10 0 59219  16422.000000  0    3279702.716   2117715.510   5665371.505
10 0 59219  16542.000000  0    3997767.056   2285804.741   5113355.398
10 0 59219  16662.000000  0    4648478.726   2401981.775   4471371.406
10 0 59219  16782.000000  0    5219525.349   2465488.977   3750688.218
10 0 59219  16902.000000  0    5699984.177   2476694.919   2963973.073
10 0 59219  17022.000000  0    6080537.612   2437063.534   2125067.496
10 0 59219  17142.000000  0    6353662.466   2349101.400   1248742.578
10 0 59219  17262.000000  0    6513785.711   2216281.654    350432.537
10 0 59219  17382.000000  0    6557401.055   2042947.610   -554045.618
10 0 59219  17502.000000  0    6483142.341   1834198.193  -1448780.075
10 0 59219  17622.000000  0    6291815.612   1595758.180  -2318050.380
10 0 59219  17742.000000  0    5986389.426   1333836.750  -3146611.331
10 0 59219  17862.000000  0    5571939.341   1054977.357  -3919965.027
10 0 59219  17982.000000  0    5055551.505    765903.890  -4624615.373
10 0 59219  18102.000000  0    4446188.245    473367.150  -5248299.762
10 0 59219  18222.000000  0    3754521.409    183994.876  -5780194.758
10 0 59219  18342.000000  0    2992736.744    -95850.944  -6211094.529
10 0 59219  18462.000000  0    2174312.457   -360207.242  -6533559.499
10 0 59219  18582.000000  0    1313778.811   -603631.209  -6742032.615
10 0 59219  18702.000000  0     426462.235   -821307.701  -6832926.466
10 0 59219  18822.000000  0    -471784.390  -1009140.434  -6804677.772
10 0 59219  18942.000000  0   -1364857.816  -1163826.316  -6657770.673
10 0 59219  19062.000000  0   -2236686.515  -1282912.213  -6394730.066
10 0 59219  19182.000000  0   -3071513.585  -1364833.043  -6020081.819
10 0 59219  19302.000000  0   -3854175.298  -1408931.065  -5540283.612
10 0 59219  19422.000000  0   -4570376.218  -1415456.392  -4963625.923
10 0 59219  19542.000000  0   -5206953.478  -1385547.791  -4300099.859
10 0 59219  19662.000000  0   -5752124.886  -1321194.277  -3561235.124
10 0 59219  19782.000000  0   -6195717.279  -1225178.068  -2759908.583
10 0 59219  19902.000000  0   -6529368.271  -1100999.439  -1910124.859
10 0 59219  20022.000000  0   -6746696.182   -952785.060  -1026773.247
10 0 59219  20142.000000  0   -6843434.198   -785181.782   -125364.244
10 0 59219  20262.000000  0   -6817522.740   -603237.001    778249.158
10 0 59219  20382.000000  0   -6669158.085   -412270.578   1668157.786
10 0 59219  20502.000000  0   -6400795.814   -217741.188   2528685.659
10 0 59219  20622.000000  0   -6017108.388    -25109.775   3344675.095
10 0 59219  20742.000000  0   -5524897.534    160296.111   4101761.357
10 0 59219  20862.000000  0   -4932964.310    333412.995   4786630.029
10 0 59219  20982.000000  0   -4251941.161    489564.229   5387251.922
10 0 59219  21102.000000  0   -3494091.454    624572.549   5893092.081
10 0 59219  21222.000000  0   -2673079.738    734858.957   6295291.123
10 0 59219  21342.000000  0   -1803718.216    817526.081   6586815.176
10 0 59219  21462.000000  0    -901693.903    870425.677   6762573.127
10 0 59219  21582.000000  0      16716.715    892207.826   6819498.814
10 0 59219  21702.000000  0     934940.888    882351.229   6756600.555
10 0 59219  21822.000000  0    1836407.396    841174.776   6574977.342
10 0 59219  21942.000000  0    2704844.500    769829.804   6277800.992
10 0 59219  22062.000000  0    3524573.932    670272.998   5870265.027
10 0 59219  22182.000000  0    4280796.669    545220.525   5359498.866
10 0 59219  22302.000000  0    4959864.001    398084.002   4754449.078
10 0 59219  22422.000000  0    5549530.871    232888.640   4065729.219
10 0 59219  22542.000000  0    6039186.668     54176.989   3305437.718
10 0 59219  22662.000000  0    6420056.788   -133100.173   2486946.082
10 0 59219  22782.000000  0    6685368.821   -323704.965   1624661.503
10 0 59219  22902.000000  0    6830481.310   -512242.314    733769.688
10 0 59219  23022.000000  0    6852971.339   -693293.410   -170039.417
10 0 59219  23142.000000  0    6752677.261   -861551.496  -1070857.446
10 0 59219  23262.000000  0    6531694.473  -1011955.758  -1952846.505
10 0 59219  23382.000000  0    6194326.203  -1139819.539  -2800525.536
10 0 59219  23502.000000  0    5746990.403  -1240949.967  -3599047.094
10 0 59219  23622.000000  0    5198086.246  -1311755.758  -4334459.350
10 0 59219  23742.000000  0    4557824.218  -1349340.408  -4993947.812
10 0 59219  23862.000000  0    3838025.215  -1351579.639  -5566053.291
10 0 59219  23982.000000  0    3051892.437  -1317181.888  -6040862.678
10 0 59219  24102.000000  0    2213762.783  -1245729.678  -6410169.507
10 0 59219  24222.000000  0    1338843.137  -1137701.073  -6667604.855
10 0 59219  24342.000000  0     442935.318   -994472.769  -6808736.496
10 0 59219  24462.000000  0    -457845.236   -818304.124  -6831137.069
10 0 59219  24582.000000  0   -1347352.768   -612302.039  -6734420.842
10 0 59219  24702.000000  0   -2209694.092   -380367.359  -6520249.995
10 0 59219  24822.000000  0   -3029506.138   -127123.337  -6192307.948
10 0 59219  24942.000000  0   -3792223.508    142172.351  -5756243.108
10 0 59219  25062.000000  0   -4484336.347    421731.639  -5219582.538
10 0 59219  25182.000000  0   -5093631.649    705353.802  -4591612.956
10 0 59219  25302.000000  0   -5609415.508    986555.770  -3883232.713
10 0 59219  25422.000000  0   -6022711.125   1258713.502  -3106772.210
10 0 59219  25542.000000  0   -6326426.756   1515210.152  -2275785.984
10 0 59219  25662.000000  0   -6515490.115   1749587.723  -1404819.480
10 0 59219  25782.000000  0   -6586945.616   1955699.627   -509153.699
10 0 59219  25902.000000  0   -6540009.857   2127859.042    395468.431
10 0 59219  26022.000000  0   -6376082.902   2260979.458   1293126.120
10 0 59219  26142.000000  0   -6098716.130   2350704.817   2168009.335
10 0 59219  26262.000000  0   -5713536.120   2393524.990   3004706.558
10 0 59219  26382.000000  0   -5228127.082   2386872.913   3788484.407
10 0 59219  26502.000000  0   -4651874.208   2329200.973   4505553.010
10 0 59219  26622.000000  0   -3995773.462   2220035.710   5143310.433
10 0 59219  26742.000000  0   -3272213.746   2060009.690   5690563.278
10 0 59219  26862.000000  0   -2494735.350   1850870.480   6137721.092
10 0 59219  26982.000000  0   -1677768.875   1595465.388   6476959.885
10 0 59219  27102.000000  0    -836362.047   1297702.726   6702352.504
10 0 59219  27222.000000  0      14099.372    962491.119   6809964.812
10 0 59219  27342.000000  0     858172.275    595657.848   6797919.731
10 0 59219  27462.000000  0    1680635.533    203847.592   6666427.729
10 0 59219  27582.000000  0    2466763.156   -205597.130   6417783.688
10 0 59219  27702.000000  0    3202587.843   -624772.784   6056330.617
10 0 59219  27822.000000  0    3875151.463  -1045365.874   5588388.593
10 0 59219  27942.000000  0    4472737.212  -1458816.657   5022149.754
10 0 59219  28062.000000  0    4985078.946  -1856492.359   4367540.813
10 0 59219  28182.000000  0    5403545.802  -2229866.015   3636054.545
10 0 59219  28302.000000  0    5721296.889  -2570698.401   2840550.033
10 0 59219  28422.000000  0    5933400.282  -2871218.240   1995025.535
10 0 59219  28542.000000  0    6036915.313  -3124295.964   1114369.741
10 0 59219  28662.000000  0    6030936.414  -3323607.891    214093.471
10 0 59219  28782.000000  0    5916594.407  -3463784.752   -689951.545
10 0 59219  28902.000000  0    5697017.694  -3540542.112  -1581861.327
10 0 59219  29022.000000  0    5377251.061  -3550787.390  -2445968.229
10 0 59219  29142.000000  0    4964138.037  -3492703.004  -3267121.991
10 0 59219  29262.000000  0    4466168.771  -3365803.045  -4030959.161
10 0 59219  29382.000000  0    3893297.814  -3170962.825  -4724154.244
10 0 59219  29502.000000  0    3256736.585  -2910419.954  -5334648.514
10 0 59219  29622.000000  0    2568727.024  -2587748.132  -5851851.231
10 0 59219  29742.000000  0    1842303.031  -2207806.657  -6266812.799
10 0 59219  29862.000000  0    1091042.404  -1776665.018  -6572370.376
10 0 59219  29982.000000  0     328813.172  -1301502.844  -6763260.834
10 0 59219  30102.000000  0    -430478.879   -790490.111  -6836201.203
10 0 59219  30222.000000  0   -1173138.065   -252648.700  -6789938.192
10 0 59219  30342.000000  0   -1885920.088    302303.202  -6625267.272
10 0 59219  30462.000000  0   -2556262.706    864122.188  -6345019.686
10 0 59219  30582.000000  0   -3172502.176   1422223.540  -5954019.209
10 0 59219  30702.000000  0   -3724074.086   1965875.780  -5459008.822
10 0 59219  30822.000000  0   -4201696.969   2484403.684  -4868546.508
10 0 59219  30942.000000  0   -4597533.687   2967396.789  -4192868.018
10 0 59219  31062.000000  0   -4905326.340   3404917.912  -3443719.211
10 0 59219  31182.000000  0   -5120503.465   3787708.840  -2634161.096
10 0 59219  31302.000000  0   -5240255.786   4107388.466  -1778346.801
10 0 59219  31422.000000  0   -5263578.463   4356637.656   -891275.730
10 0 59219  31542.000000  0   -5191278.215   4529366.738     11472.179
10 0 59219  31662.000000  0   -5025943.677   4620861.151    914016.473
10 0 59219  31782.000000  0   -4771878.773   4627899.284   1800464.976
10 0 59219  31902.000000  0   -4435000.780   4548840.059   2655203.064
10 0 59219  32022.000000  0   -4022705.609   4383678.892   3463176.962
10 0 59219  32142.000000  0   -3543704.682   4134069.968   4210165.229
10 0 59219  32262.000000  0   -3007838.308   3803314.583   4883032.797
99
